GSAT0101 (GALILEO-PFM)  
1 37846U 11060A   25200.84123925 -.00000090  00000+0  00000+0 0  9997
2 37846  57.0890 350.7740 0002201  61.2043 298.8155  1.70475629 85457
GSAT0102 (GALILEO-FM2)  
1 37847U 11060B   25201.04975245 -.00000091  00000+0  00000+0 0  9992
2 37847  57.0892 350.7688 0001995   4.6321 168.7252  1.70475786 85468
GSAT0103 (GALILEO-FM3)  
1 38857U 12055A   25200.29448882 -.00000025  00000+0  00000+0 0  9994
2 38857  55.6046 110.6901 0004131 296.8057  63.1633  1.70473510 79470
GSAT0201 (GALILEO 5)    
1 40128U 14050A   25201.40101529 -.00000054  00000+0  00000+0 0  9995
2 40128  49.2356 286.9778 1635420 166.6777 198.2717  1.85519608 72168
GSAT0202 (GALILEO 6)    
1 40129U 14050B   25201.11882193 -.00000052  00000+0  00000+0 0  9995
2 40129  49.2517 286.0713 1635627 167.4333 197.2457  1.85520216 74321
GSAT0203 (GALILEO 7)    
1 40544U 15017A   25201.20642284 -.00000092  00000+0  00000+0 0  9999
2 40544  56.8831 350.6442 0002626 249.0023 110.9664  1.70476041 63545
GSAT0204 (GALILEO 8)    
1 40545U 15017B   25201.46146451 -.00000094  00000+0  00000+0 0  9995
2 40545  56.8894 350.6543 0002821 226.6332 133.3393  1.70475566 26591
GSAT0205 (GALILEO 9)    
1 40889U 15045A   25200.64296103  .00000077  00000+0  00000+0 0  9996
2 40889  55.0565 230.7897 0002907  14.9172 345.1636  1.70473603 61348
GSAT0206 (GALILEO 10)   
1 40890U 15045B   25199.10386358  .00000073  00000+0  00000+0 0  9994
2 40890  55.0556 230.8275 0001547 327.7687  32.2899  1.70473466 61348
GSAT0209 (GALILEO 12)   
1 41174U 15079A   25201.03229981 -.00000031  00000+0  00000+0 0  9996
2 41174  55.6249 110.3827 0004509 341.1051  18.8877  1.70473683 59119
GSAT0208 (GALILEO 11)   
1 41175U 15079B   25196.55967857  .00000002  00000+0  00000+0 0  9995
2 41175  55.6212 110.5032 0004009 344.4797  15.5312  1.70473583 59452
GSAT0211 (GALILEO 14)   
1 41549U 16030A   25200.78933288  .00000077  00000+0  00000+0 0  9992
2 41549  55.2044 230.8354 0002782 317.3333  42.7178  1.70473521 57003
GSAT0210 (GALILEO 13)   
1 41550U 16030B   25201.04709953  .00000077  00000+0  00000+0 0  9994
2 41550  55.2037 230.8264 0004508 238.2572 121.7722  1.70473818 57003
GSAT0207 (GALILEO 15)   
1 41859U 16069A   25200.15250655 -.00000024  00000+0  00000+0 0  9992
2 41859  55.2922 110.3117 0004711 323.5857  36.3944  1.70473637 53728
GSAT0212 (GALILEO 16)   
1 41860U 16069B   25199.41976174 -.00000017  00000+0  00000+0 0  9993
2 41860  55.2894 110.3277 0003947 355.6425   4.3693  1.70473820 53968
GSAT0213 (GALILEO 17)   
1 41861U 16069C   25200.96078583 -.00000031  00000+0  00000+0 0  9990
2 41861  55.2928 110.2923 0004248 305.2234  54.7464  1.70474192 53854
GSAT0214 (GALILEO 18)   
1 41862U 16069D   25201.10654895 -.00000032  00000+0  00000+0 0  9995
2 41862  55.2913 110.2813 0003118 315.1834  44.8007  1.70473724 53985
GSAT0215 (GALILEO 19)   
1 43055U 17079A   25199.83673037  .00000076  00000+0  00000+0 0  9995
2 43055  55.1820 230.6778 0003491 259.2861 100.7443  1.70474340 47306
GSAT0216 (GALILEO 20)   
1 43056U 17079B   25197.19521055  .00000070  00000+0  00000+0 0  9999
2 43056  55.1835 230.7506 0004660 270.4738  89.5407  1.70474472 47276
GSAT0217 (GALILEO 21)   
1 43057U 17079C   25198.58900813  .00000072  00000+0  00000+0 0  9999
2 43057  55.1814 230.7102 0004351 283.2448  76.7738  1.70474270 47285
GSAT0218 (GALILEO 22)   
1 43058U 17079D   25201.15541967  .00000078  00000+0  00000+0 0  9995
2 43058  55.1805 230.6371 0005274 268.5282  91.4848  1.70474356 47326
GSAT0221 (GALILEO 25)   
1 43564U 18060A   25201.05795238 -.00000091  00000+0  00000+0 0  9995
2 43564  57.2639 350.7489 0002604 277.7368  82.2307  1.70475949 43504
GSAT0222 (GALILEO 26)   
1 43565U 18060B   25198.93074573 -.00000081  00000+0  00000+0 0  9999
2 43565  57.2681 350.8089 0002742 228.7278 131.2498  1.70475685 43512
GSAT0219 (GALILEO 23)   
1 43566U 18060C   25200.32523024 -.00000087  00000+0  00000+0 0  9993
2 43566  57.2668 350.7730 0001732 291.8391  68.1414  1.70475886 43514
GSAT0220 (GALILEO 24)   
1 43567U 18060D   25198.19974019 -.00000079  00000+0  00000+0 0  9990
2 43567  57.2672 350.8308 0001996 283.8653  76.1141  1.70475587 43464
GSAT0223 (GALILEO 27)   
1 49809U 21116A   25200.69638655 -.00000089  00000+0  00000+0 0  9994
2 49809  57.2559 350.6551 0002531 188.6567 354.2256  1.70475823 22516
GSAT0224 (GALILEO 28)   
1 49810U 21116B   25200.77683961 -.00000090  00000+0  00000+0 0  9997
2 49810  57.2569 350.6515 0002035 176.0633 168.7571  1.70475822 22532
GSAT0225 (GALILEO 29)   
1 59598U 24079A   25199.32404049 -.00000017  00000+0  00000+0 0  9997
2 59598  54.9101 110.4203 0000478 221.4371 303.9663  1.70473769  7627
GSAT0227 (GALILEO 30)   
1 59600U 24079C   25199.82452237 -.00000021  00000+0  00000+0 0  9993
2 59600  54.9055 110.4056 0002019  72.5817 287.4533  1.70473879  7688
GSAT0232 (GALILEO 32)   
1 61182U 24167A   25201.44138759  .00000078  00000+0  00000+0 0  9992
2 61182  55.2922 230.4141 0005353 227.9575 239.4253  1.70473773  5229
GSAT0226 (GALILEO 31)   
1 61183U 24167B   25199.90767919  .00000076  00000+0  00000+0 0  9994
2 61183  55.2914 230.4621 0003065 222.8525 135.8622  1.70473911  5167
